{
    "links": {
        "self": "http://www.neowsapp.com/rest/v1/neo/54016214?api_key=iIulBulltgU6a56xZRHN4H3l9WmuAYTsLGpBGhQ2"
    },
    "id": "54016214",
    "neo_reference_id": "54016214",
    "name": "(2020 FW)",
    "designation": "2020 FW",
    "nasa_jpl_url": "http://ssd.jpl.nasa.gov/sbdb.cgi?sstr=54016214",
    "absolute_magnitude_h": 26.648,
    "estimated_diameter": {
        "kilometers": {
            "estimated_diameter_min": 0.012443856,
            "estimated_diameter_max": 0.0278253079
        },
        "meters": {
            "estimated_diameter_min": 12.4438559939,
            "estimated_diameter_max": 27.8253079045
        },
        "miles": {
            "estimated_diameter_min": 0.0077322512,
            "estimated_diameter_max": 0.0172898394
        },
        "feet": {
            "estimated_diameter_min": 40.8263004989,
            "estimated_diameter_max": 91.2903831855
        }
    },
    "is_potentially_hazardous_asteroid": false,
    "close_approach_data": [
        {
            "close_approach_date": "2020-03-18",
            "close_approach_date_full": "2020-Mar-18 22:14",
            "epoch_date_close_approach": 1584569640000,
            "relative_velocity": {
                "kilometers_per_second": "10.2421250321",
                "kilometers_per_hour": "36871.6501155863",
                "miles_per_hour": "22910.6094843208"
            },
            "miss_distance": {
                "astronomical": "0.0218982004",
                "lunar": "8.5183999556",
                "kilometers": "3275924.136673148",
                "miles": "2035564.8681315224"
            },
            "orbiting_body": "Earth"
        }
    ],
    "orbital_data": {
        "orbit_id": "4",
        "orbit_determination_date": "2020-03-19 06:30:42",
        "first_observation_date": "2020-03-16",
        "last_observation_date": "2020-03-18",
        "data_arc_in_days": 2,
        "observations_used": 36,
        "orbit_uncertainty": "8",
        "minimum_orbit_intersection": ".01885",
        "jupiter_tisserand_invariant": "3.577",
        "epoch_osculation": "2458925.5",
        "eccentricity": ".5240389647607663",
        "semi_major_axis": "2.064401564881381",
        "inclination": "9.911907833556628",
        "ascending_node_longitude": "176.1381959718145",
        "orbital_period": "1083.402157921668",
        "perihelion_distance": ".9825747059704362",
        "perihelion_argument": "27.14950401367636",
        "aphelion_distance": "3.146228423792326",
        "perihelion_time": "2458947.202735966505",
        "mean_anomaly": "352.7884720453855",
        "mean_motion": ".3322865820118006",
        "equinox": "J2000",
        "orbit_class": {
            "orbit_class_type": "APO",
            "orbit_class_description": "Near-Earth asteroid orbits which cross the Earth’s orbit similar to that of 1862 Apollo",
            "orbit_class_range": "a (semi-major axis) > 1.0 AU; q (perihelion) < 1.017 AU"
        }
    },
    "is_sentry_object": false
}